satname,norad_id,inclination_deg,eccentricity,mean_motion_rev_per_day,perigee_km,apogee_km,l1,l2
STARLINK-1260,45404,53.1613,0.0001233,15.30219893,474.31066216393356,476.00068413713325,1 45404U 20019AW  26064.64819963  .00004169  00000+0  15270-3 0  9990,2 45404  53.1613 148.0127 0001233  97.4095 262.7046 15.30219893329354
STARLINK-1263,45405,53.1612,0.0001369,15.30195523,474.29021123861,476.16666269525103,1 45405U 20019AX  26064.50599675  .00001243  00000+0  54082-4 0  9996,2 45405  53.1612 148.7029 0001369  84.7818 275.3339 15.30195523329330
STARLINK-1265,45406,53.159,0.0001139,15.30222828,474.3663209361048,475.92749901079605,1 45406U 20019AY  26064.65137071  .00006741  00000+0  23936-3 0  9992,2 45406  53.1590 148.1025 0001139 105.0031 255.1096 15.30222828329352
STARLINK-1278,45408,53.0458,0.0001063,15.54925499,401.6484354198019,403.0899710386084,1 45408U 20019BA  26064.47647618  .00101090  00000+0  14733-2 0  9994,2 45408  53.0458 150.7831 0001063  52.2740 307.8366 15.54925499329306
STARLINK-1296,45412,53.1606,0.0001439,15.30215199,474.18349748814217,476.1558791530415,1 45412U 20019BE  26064.64503578  .00005444  00000+0  19569-3 0  9993,2 45412  53.1606 148.0330 0001439 100.4378 259.6784 15.30215199329357
STARLINK-1298,45413,53.0346,0.0006888,15.93892013,286.8094842229448,295.99744316573106,1 45413U 20019BF  26064.91668981  .00302477  46457-4  81279-3 0  9998,2 45413  53.0346  73.2351 0006888   7.7435 356.4967 15.93892013  6004
STARLINK-1309,45414,53.0671,0.0004943,15.54035593,401.60460757769033,408.3103747916739,1 45414U 20019BG  26064.91668981  .00083264  00000+0  12572-2 0  9997,2 45414  53.0671 141.8271 0004943  18.6849  81.6605 15.54035593  5957
STARLINK-1316,45415,53.1612,0.0001471,15.30188606,474.24095696679524,476.25722315449,1 45415U 20019BH  26064.62504387 -.00000204  00000+0  52309-5 0  9994,2 45415  53.1612 148.1773 0001471 105.4275 254.6888 15.30188606329370
STARLINK-1286,45417,53.0491,0.0002777,15.50547518,413.23991757987915,417.0128960760312,1 45417U 20019BK  26064.61037728  .00039249  00000+0  67979-3 0  9992,2 45417  53.0491 150.3187 0002777  57.9739 302.1539 15.50547518329595
STARLINK-1308,45419,53.056,0.0001392,15.49767718,416.4590637551901,418.35094264888176,1 45419U 20019BM  26064.55620089  .00030835  00000+0  55130-3 0  9993,2 45419  53.0560 171.9454 0001392  17.0563 343.0491 15.49767718329038
STARLINK-1329,45531,53.0489,0.0001094,15.55451603,400.0985727060797,401.58181291586607,1 45531U 20025A   26064.91668981  .00163703  00000+0  23176-2 0  9993,2 45531  53.0489  99.6122 0001094 305.7129  60.4502 15.55451603  5972
STARLINK-1338,45532,53.0495,0.0005063,15.53823793,402.13928176380796,409.008467395407,1 45532U 20025B   26064.52271160  .00096645  00000+0  14669-2 0  9997,2 45532  53.0495 104.8516 0005063 344.0097  16.0752 15.53823793324751
STARLINK-1350,45535,53.0734,0.0001902,15.35968391,456.74537680580124,459.3458606739705,1 45535U 20025E   26064.36634088  .00017106  00000+0  49119-3 0  9998,2 45535  53.0734  53.4461 0001902  65.8291 294.2910 15.35968391325492
STARLINK-1362,45538,53.1636,0.0001291,15.30228876,474.24409562255005,476.01360886559996,1 45538U 20025H   26064.47581911 -.00008148  00000+0 -26302-3 0  9996,2 45538  53.1636 120.5699 0001291  95.7386 264.3762 15.30228876324533
STARLINK-1368,45540,53.1597,0.0001506,15.30200645,474.18102903464114,476.2452580978834,1 45540U 20025K   26064.55065872  .00003994  00000+0  14691-3 0  9991,2 45540  53.1597 120.5521 0001506  96.8476 263.2697 15.30200645324536
STARLINK-1371,45542,53.0502,0.0002137,15.46171903,426.48238422973736,429.3913001898982,1 45542U 20025M   26064.15986864  .00080216  00000+0  16005-2 0  9994,2 45542  53.0502 111.0488 0002137 324.0238  36.0624 15.46171903324631
STARLINK-1372,45543,53.1612,0.0001438,15.30207989,474.2057072116977,476.17672440656406,1 45543U 20025N   26064.52744029  .00002722  00000+0  10396-3 0  9995,2 45543  53.1612 120.3570 0001438  83.7179 276.3985 15.30207989323631
STARLINK-1373,45544,53.0503,0.0005058,15.49886405,413.62106368352033,420.4950830197231,1 45544U 20025P   26064.44228865  .00096365  00000+0  16841-2 0  9998,2 45544  53.0503 109.3619 0005058 349.2254  10.8645 15.49886405324683
STARLINK-1327,45555,53.0487,0.0006272,15.52947926,403.86797978643153,412.3806659898637,1 45555U 20025AA  26064.47120490  .00095012  00000+0  14886-2 0  9993,2 45555  53.0487  86.9771 0006272  37.3472 322.7972 15.52947926324993
STARLINK-1356,45564,53.0514,0.0005624,15.44017362,430.4355946305477,438.09818652666945,1 45564U 20025AK  26064.46022366  .00041854  00000+0  90717-3 0  9998,2 45564  53.0514  93.9773 0005624  13.7582 346.3576 15.44017362324898
STARLINK-1357,45565,53.0527,0.0003764,15.54567264,400.85825669998394,405.96340590738873,1 45565U 20025AL  26064.91668981  .00152934  00000+0  22396-2 0  9997,2 45565  53.0527  56.2556 0003764  69.6175 255.3053 15.54567264  5904
STARLINK-1361,45567,53.0505,0.0007856,15.46836378,420.642257482089,431.33289801865067,1 45567U 20025AN  26064.81399406  .00082652  00000+0  16096-2 0  9990,2 45567  53.0505  92.4296 0007856  16.0345 344.0908 15.46836378324956
STARLINK-1363,45568,53.0421,0.0008582,15.75691613,336.89604490013517,348.4316274553503,1 45568U 20025AP  26064.91668981  .00170142  00000+0  10684-2 0  9998,2 45568  53.0421  56.5473 0008582  43.4541  91.3333 15.75691613  5965
STARLINK-1366,45569,53.0434,0.0008765,15.7493519,338.9229441526404,350.70828008168064,1 45569U 20025AQ  26064.91668981  .00157960  00000+0  10268-2 0  9990,2 45569  53.0434  57.3024 0008765  43.2338  15.3537 15.74935190  5801
STARLINK-1376,45570,53.1595,0.0001286,15.29365519,476.8261504898892,478.5894737755698,1 45570U 20025AR  26064.47146233  .00001999  00000+0  81578-4 0  9998,2 45570  53.1595  97.3721 0001286  88.2220 271.8927 15.29365519324853
STARLINK-1320,45572,53.0508,0.000761,15.67997222,359.5012788525755,369.7637740718519,1 45572U 20025AT  26064.85580009  .00086215  00000+0  75968-3 0  9994,2 45572  53.0508   4.6387 0007610  43.4408 316.7206 15.67997222326209
STARLINK-1321,45573,53.0498,0.000446,15.47448337,421.1597657490029,427.22744464884,1 45573U 20025AU  26064.23875779  .00086984  00000+0  16583-2 0  9998,2 45573  53.0498  79.7797 0004460  27.2659 332.8581 15.47448337324775
STARLINK-1331,45578,53.0533,0.0004368,15.47476054,421.14115760657114,427.0836026650568,1 45578U 20025AZ  26064.69812689  .00091590  00000+0  17430-2 0  9995,2 45578  53.0533  84.2541 0004368  66.6909 293.4557 15.47476054325065
STARLINK-1333,45580,53.1588,0.0001212,15.3019851,474.3888914843419,476.0501451043765,1 45580U 20025BB  26064.38258579  .00000244  00000+0  20356-4 0  9995,2 45580  53.1588  97.8146 0001212  89.8221 270.2919 15.30198510324849
STARLINK-1335,45581,53.1533,0.00011,15.29273195,477.2295662875513,478.737912850258,1 45581U 20025BC  26064.91668981  .00104834  00000+0  36034-2 0  9995,2 45581  53.1533  92.5558 0001100  87.8768 294.2876 15.29273195  5787
STARLINK-1337,45582,53.0532,0.0004715,15.57523354,391.6340027685228,398.0209082500669,1 45582U 20025BD  26064.83539428  .00080113  00000+0  10644-2 0  9992,2 45582  53.0532  80.4669 0004715  64.8145 295.3355 15.57523354325116
STARLINK-1347,45586,53.0465,0.0005947,15.53225021,403.28187760427045,411.3524968145366,1 45586U 20025BH  26064.91668981  .00131248  00000+0  20240-2 0  9991,2 45586  53.0465  47.6938 0005947  43.2741 124.6639 15.53225021  5907
STARLINK-1364,45589,53.0516,0.0007683,15.48591922,415.6206682514121,426.0679829563351,1 45589U 20025BL  26064.42999135  .00090255  00000+0  16515-2 0  9990,2 45589  53.0516  83.6176 0007683  40.0150 320.1422 15.48591922325031
STARLINK-1365,45590,53.0522,0.0003376,15.44594164,430.2715070413533,434.8700969492602,1 45590U 20025BM  26064.52848300  .00091979  00000+0  19324-2 0  9995,2 45590  53.0522 113.3569 0003376  15.4593 344.6515 15.44594164324646
STARLINK-1443,45660,53.1363,0.0002007,15.24928282,489.62216160016396,492.3794335121029,1 45660U 20035D   26064.25889269  .00011349  00000+0  46264-3 0  9990,2 45660  53.1363  85.3390 0002007  59.5541 300.5655 15.24928282318087
STARLINK-1446,45663,53.0271,3.53e-05,15.42698447,437.9085214967272,438.38975129795654,1 45663U 20035G   26064.85956741  .00025526  00000+0  58343-3 0  9992,2 45663  53.0271  17.5680 0000353 236.8848 123.2122 15.42698447319085
STARLINK-1448,45665,53.0509,0.000777,15.51321436,407.5902753718001,418.1434954096985,1 45665U 20035J   26064.72228916  .00106089  00000+0  17580-2 0  9997,2 45665  53.0509  71.8236 0007770  59.2025 300.9747 15.51321436318307
STARLINK-1451,45668,53.0519,0.0001497,15.09791221,535.8022418689543,537.8725852083671,1 45668U 20035M   26064.44449493  .00028163  00000+0  17347-2 0  9991,2 45668  53.0519  85.2246 0001497  12.0649 348.0377 15.09791221318106
STARLINK-1452,45669,53.0336,0.0007986,15.44156539,428.41748455949164,439.2976022442126,1 45669U 20035N   26064.34527182  .00097742  00000+0  20803-2 0  9993,2 45669  53.0336  42.4191 0007986  38.3140 321.8432 15.44156539318695
STARLINK-1453,45670,53.049,0.0007547,15.51491941,407.24453849728616,417.49412875726375,1 45670U 20035P   26064.91668981  .00148586  00000+0  24313-2 0  9994,2 45670  53.0490  31.4870 0007547  35.3746  18.6293 15.51491941  5845
STARLINK-1454,45671,53.0511,0.0008671,15.49949304,410.982279177485,422.766187658478,1 45671U 20035Q   26064.91668981  .00109198  00000+0  18983-2 0  9997,2 45671  53.0511  70.9789 0008671  42.8075 141.3407 15.49949304  5966
STARLINK-1456,45673,53.0487,0.0001675,15.49729612,416.378126974907,418.654670863546,1 45673U 20035S   26064.29810985  .00032375  00000+0  57909-3 0  9997,2 45673  53.0487  67.3949 0001675  97.2702 262.8496 15.49729612318340
STARLINK-1457,45674,53.0481,0.0009686,15.77418192,331.2537108973229,344.26374410063363,1 45674U 20035T   26064.91668981  .00172280  00000+0  10016-2 0  9991,2 45674  53.0481  41.3082 0009686  55.6614 224.3065 15.77418192  6039
